NORAD_CAT_ID,OBJECT_NAME,OBJECT_TYPE,EPOCH,MEAN_MOTION,ECCENTRICITY,INCLINATION,RA_OF_ASC_NODE,ARG_OF_PERICENTER,MEAN_ANOMALY,BSTAR,MEAN_MOTION_DOT,MEAN_MOTION_DDOT,TLE_LINE0,TLE_LINE1,TLE_LINE2,SEMIMAJOR_AXIS,PERIOD,APOGEE,PERIGEE,DECAYED
56481.0,STARLINK-6222,PAYLOAD,2024-02-03 21:35:03,14.98321627,0.0002419,69.9992,252.6617,270.4596,89.6286,-0.00012386,-1.57e-05,0.0,0 STARLINK-6222,1 56481U 23064AK  24034.89934824 -.00001570  00000-0 -12386-3 0  9997,2 56481  69.9992 252.6617 0002419 270.4596  89.6286 14.98321627 41184,6950.219,96.108,573.765,570.403,0.0
56481.0,STARLINK-6222,PAYLOAD,2024-02-04 00:47:19,14.98321493,0.0002428,69.9992,252.3249,271.7936,88.2945,-0.00011976,-1.521e-05,0.0,0 STARLINK-6222,1 56481U 23064AK  24035.03286892 -.00001521  00000-0 -11976-3 0  9999,2 56481  69.9992 252.3249 0002428 271.7936  88.2945 14.98321493 41564,6950.219,96.108,573.772,570.397,0.0
56481.0,STARLINK-6222,PAYLOAD,2024-02-04 20:00:56,14.9832625,0.0002534,69.9987,250.3044,264.5977,95.4893,-1.5624e-05,-2.79e-06,0.0,0 STARLINK-6222,1 56481U 23064AK  24035.83398447 -.00000279  00000-0 -15624-4 0  9991,2 56481  69.9987 250.3044 0002534 264.5977  95.4893 14.98326250 41683,6950.204,96.107,573.831,570.308,0.0
56481.0,STARLINK-6222,PAYLOAD,2024-02-04 21:37:04,14.98325944,0.000254,69.9986,250.1361,264.7885,95.2984,-1.8397e-05,-3.12e-06,0.0,0 STARLINK-6222,1 56481U 23064AK  24035.90074495 -.00000312  00000-0 -18397-4 0  9991,2 56481  69.9986 250.1361 0002540 264.7885  95.2984 14.98325944 41698,6950.205,96.107,573.836,570.305,0.0
56481.0,STARLINK-6222,PAYLOAD,2024-02-04 23:13:12,14.98325669,0.0002548,69.9986,249.9677,265.7142,94.3726,-2.0827e-05,-3.41e-06,0.0,0 STARLINK-6222,1 56481U 23064AK  24035.96750545 -.00000341  00000-0 -20827-4 0  9997,2 56481  69.9986 249.9677 0002548 265.7142  94.3726 14.98325669 41709,6950.206,96.107,573.842,570.3,0.0
56481.0,STARLINK-6222,PAYLOAD,2024-02-05 07:13:52,14.98326441,0.0002654,69.9984,249.1266,271.4222,88.6633,5.1839e-05,5.26e-06,0.0,0 STARLINK-6222,1 56481U 23064AK  24036.30130408  .00000526  00000-0  51839-4 0  9996,2 56481  69.9984 249.1266 0002654 271.4222  88.6633 14.98326441 41751,6950.204,96.107,573.913,570.224,0.0
56481.0,STARLINK-6222,PAYLOAD,2024-02-05 20:02:57,14.98328062,0.0002878,69.998,247.7789,273.4412,86.6418,9.8492e-05,1.082e-05,0.0,0 STARLINK-6222,1 56481U 23064AK  24036.83538274  .00001082  00000-0  98492-4 0  9991,2 56481  69.9980 247.7789 0002878 273.4412  86.6418 14.98328062 41831,6950.199,96.107,574.064,570.064,0.0
56481.0,STARLINK-6222,PAYLOAD,2024-02-05 21:39:05,14.98329539,0.0002846,69.998,247.6106,273.4732,86.6102,0.0001153,1.283e-05,0.0,0 STARLINK-6222,1 56481U 23064AK  24036.90214137  .00001283  00000-0  11530-3 0  9998,2 56481  69.9980 247.6106 0002846 273.4732  86.6102 14.98329539 41484,6950.194,96.107,574.037,570.081,0.0
56481.0,STARLINK-6222,PAYLOAD,2024-02-06 00:51:21,14.98330795,0.0002836,69.998,247.274,273.1712,86.9123,0.00012421,1.389e-05,0.0,0 STARLINK-6222,1 56481U 23064AK  24037.03566025  .00001389  00000-0  12421-3 0  9996,2 56481  69.9980 247.2740 0002836 273.1712  86.9123 14.98330795 41862,6950.19,96.107,574.027,570.084,0.0
56481.0,STARLINK-6222,PAYLOAD,2024-02-06 20:04:57,14.98338278,0.0002852,69.998,245.2538,273.544,86.5392,9.7537e-05,1.071e-05,0.0,0 STARLINK-6222,1 56481U 23064AK  24037.83677344  .00001071  00000-0  97537-4 0  9991,2 56481  69.9980 245.2538 0002852 273.5440  86.5392 14.98338278 41986,6950.167,96.106,574.014,570.05,0.0
56481.0,STARLINK-6222,PAYLOAD,2024-02-06 21:41:05,14.98340054,0.0002828,69.998,245.0855,273.4102,86.6733,0.00011635,1.296e-05,0.0,0 STARLINK-6222,1 56481U 23064AK  24037.90353133  .00001296  00000-0  11635-3 0  9999,2 56481  69.9980 245.0855 0002828 273.4102  86.6733 14.98340054 41630,6950.162,96.106,573.992,570.061,0.0
56481.0,STARLINK-6222,PAYLOAD,2024-02-06 23:17:13,14.98340826,0.0002822,69.998,244.9172,273.1903,86.8933,0.00012214,1.365e-05,0.0,0 STARLINK-6222,1 56481U 23064AK  24037.97029018  .00001365  00000-0  12214-3 0  9999,2 56481  69.9980 244.9172 0002822 273.1903  86.8933 14.98340826 42003,6950.159,96.106,573.986,570.063,0.0
56481.0,STARLINK-6222,PAYLOAD,2024-02-07 13:42:26,14.98334835,0.0002676,69.9984,243.4031,272.5642,87.521,-3.3617e-05,-4.94e-06,0.0,0 STARLINK-6222,1 56481U 23064AK  24038.57113542 -.00000494  00000-0 -33617-4 0  9997,2 56481  69.9984 243.4031 0002676 272.5642  87.5210 14.98334835 41733,6950.178,96.107,573.903,570.183,0.0
56481.0,STARLINK-6222,PAYLOAD,2024-02-07 20:06:58,14.98333401,0.0002687,69.9985,242.7295,271.762,88.3232,-3.6427e-05,-5.28e-06,0.0,0 STARLINK-6222,1 56481U 23064AK  24038.83817522 -.00000528  00000-0 -36427-4 0  9995,2 56481  69.9985 242.7295 0002687 271.7620  88.3232 14.98333401 42133,6950.182,96.107,573.915,570.18,0.0
56481.0,STARLINK-6222,PAYLOAD,2024-02-07 21:43:06,14.98332832,0.0002726,69.9985,242.5613,271.7714,88.3133,-4.7028e-05,-6.54e-06,0.0,0 STARLINK-6222,1 56481U 23064AK  24038.90493563 -.00000654  00000-0 -47028-4 0  9997,2 56481  69.9985 242.5613 0002726 271.7714  88.3133 14.98332832 41780,6950.184,96.107,573.944,570.155,0.0
56481.0,STARLINK-6222,PAYLOAD,2024-02-07 23:19:14,14.9833282,0.0002727,69.9985,242.3929,271.8159,88.2688,-4.6806e-05,-6.51e-06,0.0,0 STARLINK-6222,1 56481U 23064AK  24038.97169543 -.00000651  00000-0 -46806-4 0  9992,2 56481  69.9985 242.3929 0002727 271.8159  88.2688 14.98332820 42156,6950.184,96.107,573.944,570.154,0.0
56481.0,STARLINK-6222,PAYLOAD,2024-02-08 12:08:18,14.98334766,0.0002718,69.9985,241.0456,272.6988,87.386,-7.3766e-05,-9.73e-06,0.0,0 STARLINK-6222,1 56481U 23064AK  24039.50577324 -.00000973  00000-0 -73766-4 0  9994,2 56481  69.9985 241.0456 0002718 272.6988  87.3860 14.98334766 42238,6950.178,96.107,573.932,570.154,0.0
56481.0,STARLINK-6222,PAYLOAD,2024-02-08 13:44:26,14.98336085,0.0002746,69.9985,240.8773,272.7037,87.3808,-9.5002e-05,-1.226e-05,0.0,0 STARLINK-6222,1 56481U 23064AK  24039.57253283 -.00001226  00000-0 -95002-4 0  9995,2 56481  69.9985 240.8773 0002746 272.7037  87.3808 14.98336085 41882,6950.174,96.107,573.948,570.131,0.0
56481.0,STARLINK-6222,PAYLOAD,2024-02-08 20:08:59,14.98335303,0.0002761,69.9987,240.2041,272.899,87.1853,-9.5254e-05,-1.229e-05,0.0,0 STARLINK-6222,1 56481U 23064AK  24039.83957225 -.00001229  00000-0 -95254-4 0  9993,2 56481  69.9987 240.2041 0002761 272.8990  87.1853 14.98335303 42287,6950.176,96.107,573.96,570.123,0.0
56481.0,STARLINK-6222,PAYLOAD,2024-02-08 21:45:07,14.98334295,0.0002769,69.9987,240.0357,272.9771,87.1071,-0.00010456,-1.34e-05,0.0,0 STARLINK-6222,1 56481U 23064AK  24039.90633295 -.00001340  00000-0 -10456-3 0  9993,2 56481  69.9987 240.0357 0002769 272.9771  87.1071 14.98334295 41933,6950.18,96.107,573.969,570.12,0.0
56481.0,STARLINK-6222,PAYLOAD,2024-02-08 23:21:15,14.98334932,0.0002765,69.9987,239.8674,273.0944,86.9898,-9.4763e-05,-1.224e-05,0.0,0 STARLINK-6222,1 56481U 23064AK  24039.97309210 -.00001224  00000-0 -94763-4 0  9992,2 56481  69.9987 239.8674 0002765 273.0944  86.9898 14.98334932 42305,6950.178,96.107,573.964,570.121,0.0
56481.0,STARLINK-6222,PAYLOAD,2024-02-09 13:46:27,14.98332028,0.0002839,69.9987,238.3527,273.2203,86.8631,2.71e-05,2.3e-06,0.0,0 STARLINK-6222,1 56481U 23064AK  24040.57392873  .00000230  00000-0  27100-4 0  9992,2 56481  69.9987 238.3527 0002839 273.2203  86.8631 14.98332028 42036,6950.187,96.107,574.025,570.078,0.0
56481.0,STARLINK-6222,PAYLOAD,2024-02-09 18:34:51,14.98333148,0.0002828,69.999,237.8476,273.2838,86.7997,3.9754e-05,3.81e-06,0.0,0 STARLINK-6222,1 56481U 23064AK  24040.77420730  .00000381  00000-0  39754-4 0  9993,2 56481  69.9990 237.8476 0002828 273.2838  86.7997 14.98333148 42420,6950.183,96.107,574.014,570.083,0.0
56481.0,STARLINK-6222,PAYLOAD,2024-02-09 23:23:15,14.98333563,0.0002831,69.999,237.3427,273.38,86.7035,4.2627e-05,4.16e-06,0.0,0 STARLINK-6222,1 56481U 23064AK  24040.97448656  .00000416  00000-0  42627-4 0  9994,2 56481  69.9990 237.3427 0002831 273.3800  86.7035 14.98333563 42452,6950.182,96.107,574.014,570.079,0.0
56481.0,STARLINK-6222,PAYLOAD,2024-02-10 13:48:28,14.98329524,0.000279,69.9993,235.8277,272.8747,87.2093,-3.0404e-06,-1.29e-06,0.0,0 STARLINK-6222,1 56481U 23064AK  24041.57532969 -.00000129  00000-0 -30404-5 0  9996,2 56481  69.9993 235.8277 0002790 272.8747  87.2093 14.98329524 42181,6950.194,96.107,573.998,570.12,0.0
56481.0,STARLINK-6222,PAYLOAD,2024-02-10 20:13:00,14.98328448,0.0002783,69.9994,235.1546,271.0067,89.0773,-9.5673e-06,-2.07e-06,0.0,0 STARLINK-6222,1 56481U 23064AK  24041.84237036 -.00000207  00000-0 -95673-5 0  9999,2 56481  69.9994 235.1546 0002783 271.0067  89.0773 14.98328448 42585,6950.198,96.107,573.997,570.128,0.0
56481.0,STARLINK-6222,PAYLOAD,2024-02-10 21:49:08,14.98328113,0.0002789,69.9994,234.9863,271.2426,88.8413,-1.3727e-05,-2.57e-06,0.0,0 STARLINK-6222,1 56481U 23064AK  24041.90913073 -.00000257  00000-0 -13727-4 0  9992,2 56481  69.9994 234.9863 0002789 271.2426  88.8413 14.98328113 42230,6950.199,96.107,574.002,570.125,0.0
56481.0,STARLINK-6222,PAYLOAD,2024-02-10 23:25:16,14.98328768,0.0002785,69.9994,234.8178,270.4751,89.6089,-7.8068e-06,-1.86e-06,0.0,0 STARLINK-6222,1 56481U 23064AK  24041.97589011 -.00000186  00000-0 -78068-5 0  9991,2 56481  69.9994 234.8178 0002785 270.4751  89.6089 14.98328768 42601,6950.197,96.107,573.997,570.126,0.0
56481.0,STARLINK-6222,PAYLOAD,2024-02-11 13:50:29,14.98333482,0.0002813,69.9994,233.3028,269.5422,90.5415,-1.7731e-05,-3.05e-06,0.0,0 STARLINK-6222,1 56481U 23064AK  24042.57672654 -.00000305  00000-0 -17731-4 0  9996,2 56481  69.9994 233.3028 0002813 269.5422  90.5415 14.98333482 42338,6950.182,96.107,574.002,570.092,0.0
56481.0,STARLINK-6222,PAYLOAD,2024-02-11 20:15:01,14.98333465,0.0002825,69.9995,232.6296,269.8827,90.2008,-1.5857e-05,-2.82e-06,0.0,0 STARLINK-6222,1 56481U 23064AK  24042.84376585 -.00000282  00000-0 -15857-4 0  9991,2 56481  69.9995 232.6296 0002825 269.8827  90.2008 14.98333465 42733,6950.182,96.107,574.011,570.084,0.0
